SIRION PATHFINDER-2     
1 43759U 18099B   26131.57561238  .00002636  00000+0  14779-3 0  9992
2 43759  97.4284 181.5074 0010318  71.8725 288.3630 15.14206976407083
CORVUS BC4              
1 43767U 18099K   26131.06972625  .00003194  00000+0  18852-3 0  9997
2 43767  97.4100 175.1397 0009800 124.1393 236.0769 15.12188428406792
M2 PATHFINDER           
1 45727U 20037E   26131.26960603  .00001881  00000+0  13878-3 0  9999
2 45727  97.8165 322.0884 0010245 278.8246  81.1820 15.04513075319946
NETSAT-4                
1 46504U 20068U   26131.22973328  .00011889  00000+0  27496-3 0  9991
2 46504  97.8621 136.5388 0007676  95.0170 265.1952 15.42631433310079
NETSAT-3                
1 46505U 20068V   26130.94732316  .00011969  00000+0  28840-3 0  9993
2 46505  97.8671 134.4998 0007508 108.3847 251.8215 15.41395029309947
NETSAT-1                
1 46506U 20068W   26131.47962740  .00008038  00000+0  24890-3 0  9993
2 46506  97.8754 129.8268 0006700 125.9205 234.2659 15.33739661309676
NETSAT-2                
1 46507U 20068X   26131.44598998  .00014586  00000+0  31710-3 0  9995
2 46507  97.8636 136.5433 0006171 114.8429 245.3460 15.44431577310067
GREENCUBE (IO-117)      
1 53109U 22080E   26131.45410627 -.00000003  00000+0  00000+0 0  9994
2 53109  70.1441 311.0256 0008875 298.1354  61.8409  6.42583318 89707
SITRO-AIS 5 (KATYS)     
1 57176U 23091L   26131.55196660  .00006781  00000+0  24611-3 0  9990
2 57176  97.5083 195.1242 0010611 225.2194 134.8183 15.28605296158745
SITRO-AIS 6 (CHIRKIN)   
1 57192U 23091AC  26131.57950648  .00003467  00000+0  14072-3 0  9992
2 57192  97.5090 194.4604 0010765 228.8497 131.1812 15.25240094158703
SITRO-AIS 8 (ANOKHIN)   
1 57193U 23091AD  26131.56578340  .00008215  00000+0  27533-3 0  9999
2 57193  97.5077 196.5827 0009926 220.2542 139.7964 15.31137606158841
SITRO-AIS 7 (FARTUSHNIY)
1 57194U 23091AE  26131.57538276  .00003270  00000+0  13409-3 0  9998
2 57194  97.5088 194.2996 0010586 230.0787 129.9521 15.24946333158690
SITRO-AIS 10 (BURDAEV)  
1 57199U 23091AK  26131.55125401  .00012234  00000+0  33756-3 0  9990
2 57199  97.5098 201.2568 0006898 190.9312 169.1783 15.37219913159136
SITRO-AIS 9 (SHCHUKIN)  
1 57201U 23091AM  26131.56653694  .00011682  00000+0  32715-3 0  9995
2 57201  97.5095 201.0300 0007104 191.7527 168.3552 15.36765975159124
SITRO-AIS 12 (SMIRENNIY)
1 57204U 23091AQ  26131.43378985  .00011907  00000+0  33042-3 0  9995
2 57204  97.5107 201.3388 0006915 185.9629 174.1534 15.37047108159124
SITRO-AIS 11 (SHEFFER)  
1 57208U 23091AU  26131.58711063  .00011832  00000+0  32421-3 0  9990
2 57208  97.5106 201.7199 0006840 185.1118 175.0058 15.37442106159165
SITRO-AIS 25            
1 59066U 24039R   26131.65764341  .00002869  00000+0  22392-3 0  9998
2 59066  95.3921 209.9945 0147524  95.8105 265.9959 14.93253392119272
SITRO-AIS 26            
1 59067U 24039S   26131.65410685  .00002836  00000+0  22238-3 0  9991
2 59067  95.3921 209.8971 0147869  96.3487 265.4602 14.93056258119263
SITRO-AIS 27            
1 59068U 24039T   26131.63450234  .00003714  00000+0  28786-3 0  9994
2 59068  95.3922 210.1383 0147017  95.1467 266.6556 14.93466525119282
SITRO-AIS 28            
1 59071U 24039U   26131.61278475  .00003114  00000+0  24168-3 0  9995
2 59071  95.3924 210.1688 0146769  95.0833 266.7163 14.93499965119284
GRBBETA                 
1 60237U 24128C   26131.31542567  .00002478  00000+0  17862-3 0  9998
2 60237  61.9910 345.6011 0045463 127.0344 233.4921 15.06332592100718
OOV-CUBE (TUBSAT-30)    
1 60240U 24128F   26131.32352467  .00001496  00000+0  12494-3 0  9996
2 60240  61.9952 354.0969 0049085 125.7149 234.8524 15.02583342100571
ROBUSTA-3A (MEDITERRAN*)
1 60243U 24128J   26131.28363677  .00004816  00000+0  29230-3 0  9994
2 60243  61.9875 338.6897 0046292 120.8297 239.7365 15.11090659100844
LASARSAT                
1 62391U 24247Q   26131.31970505  .00020807  00000+0  45148-3 0  9994
2 62391  44.9739 109.0045 0004563 106.4234 253.7156 15.44090423 77618
CROCUBE                 
1 62394U 24247T   26131.35864486  .00023751  00000+0  48719-3 0  9999
2 62394  44.9712 106.6663 0004283 108.2079 251.9278 15.45671989 77648
FORESAIL-1 PRIME        
1 66778U 25276DS  26131.16080920  .00003226  00000+0  16033-3 0  9993
2 66778  97.4207 205.1173 0001627 194.9877 165.1309 15.18357545 24785
KNACKSAT-2              
1 67683U 98067XZ  26131.21828952  .00027800  00000+0  38508-3 0  9993
2 67683  51.6281 119.9512 0012609  61.9359 298.2906 15.56780385 14519
