OBJECT_NAME,OBJECT_ID,EPOCH,MEAN_MOTION,ECCENTRICITY,INCLINATION,RA_OF_ASC_NODE,ARG_OF_PERICENTER,MEAN_ANOMALY,EPHEMERIS_TYPE,CLASSIFICATION_TYPE,NORAD_CAT_ID,ELEMENT_SET_NO,REV_AT_EPOCH,BSTAR,MEAN_MOTION_DOT,MEAN_MOTION_DDOT
SIRION PATHFINDER-2,2018-099B,2026-05-11T13:48:52.909632,15.14206976,.00103183,97.4284,181.5074,71.8725,288.3630,0,U,43759,999,40708,.14778603E-3,.2636E-4,0
CORVUS BC4,2018-099K,2026-05-11T01:40:24.348000,15.12188428,.00098008,97.4100,175.1397,124.1393,236.0769,0,U,43767,999,40679,.18852185E-3,.3194E-4,0
M2 PATHFINDER,2020-037E,2026-05-11T06:28:13.960992,15.04513075,.00102455,97.8165,322.0884,278.8246,81.1820,0,U,45727,999,31994,.13878096E-3,.1881E-4,0
NETSAT-4,2020-068U,2026-05-11T05:30:48.955392,15.42631433,.00076761,97.8621,136.5388,95.0170,265.1952,0,U,46504,999,31007,.27495893E-3,.11889E-3,0
NETSAT-3,2020-068V,2026-05-10T22:44:08.721024,15.41395029,.00075083,97.8671,134.4998,108.3847,251.8215,0,U,46505,999,30994,.28840395E-3,.11969E-3,0
NETSAT-1,2020-068W,2026-05-11T11:30:39.807360,15.33739661,.00067007,97.8754,129.8268,125.9205,234.2659,0,U,46506,999,30967,.24889813E-3,.8038E-4,0
NETSAT-2,2020-068X,2026-05-11T10:42:13.534272,15.44431577,.00061719,97.8636,136.5433,114.8429,245.3460,0,U,46507,999,31006,.31710462E-3,.14586E-3,0
GREENCUBE (IO-117),2022-080E,2026-05-11T10:53:54.781728,6.42583318,.00088758,70.1441,311.0256,298.1354,61.8409,0,U,53109,999,8970,0,-.3E-7,0
SITRO-AIS 5 (KATYS),2023-091L,2026-05-11T13:14:49.914240,15.28605296,.00106116,97.5083,195.1242,225.2194,134.8183,0,U,57176,999,15874,.24610967E-3,.6781E-4,0
SITRO-AIS 6 (CHIRKIN),2023-091AC,2026-05-11T13:54:29.359872,15.25240094,.00107656,97.5090,194.4604,228.8497,131.1812,0,U,57192,999,15870,.14071867E-3,.3467E-4,0
SITRO-AIS 8 (ANOKHIN),2023-091AD,2026-05-11T13:34:43.685760,15.31137606,.0009926,97.5077,196.5827,220.2542,139.7964,0,U,57193,999,15884,.2753338E-3,.8215E-4,0
SITRO-AIS 7 (FARTUSHNIY),2023-091AE,2026-05-11T13:48:33.070464,15.24946333,.00105862,97.5088,194.2996,230.0787,129.9521,0,U,57194,999,15869,.13408544E-3,.327E-4,0
SITRO-AIS 10 (BURDAEV),2023-091AK,2026-05-11T13:13:48.346464,15.37219913,.00068983,97.5098,201.2568,190.9312,169.1783,0,U,57199,999,15913,.33755794E-3,.12234E-3,0
SITRO-AIS 9 (SHCHUKIN),2023-091AM,2026-05-11T13:35:48.791616,15.36765975,.00071042,97.5095,201.0300,191.7527,168.3552,0,U,57201,999,15912,.32714806E-3,.11682E-3,0
SITRO-AIS 12 (SMIRENNIY),2023-091AQ,2026-05-11T10:24:39.443040,15.37047108,.00069153,97.5107,201.3388,185.9629,174.1534,0,U,57204,999,15912,.33042024E-3,.11907E-3,0
SITRO-AIS 11 (SHEFFER),2023-091AU,2026-05-11T14:05:26.358432,15.37442106,.00068402,97.5106,201.7199,185.1118,175.0058,0,U,57208,999,15916,.32421423E-3,.11832E-3,0
SITRO-AIS 25,2024-039R,2026-05-11T15:47:00.390624,14.93253392,.01475244,95.3921,209.9945,95.8105,265.9959,0,U,59066,999,11927,.22391953E-3,.2869E-4,0
SITRO-AIS 26,2024-039S,2026-05-11T15:41:54.831840,14.93056258,.01478693,95.3921,209.8971,96.3487,265.4602,0,U,59067,999,11926,.22238276E-3,.2836E-4,0
SITRO-AIS 27,2024-039T,2026-05-11T15:13:41.002176,14.93466525,.01470176,95.3922,210.1383,95.1467,266.6556,0,U,59068,999,11928,.2878615E-3,.3714E-4,0
SITRO-AIS 28,2024-039U,2026-05-11T14:42:24.602400,14.93499965,.01467692,95.3924,210.1688,95.0833,266.7163,0,U,59071,999,11928,.24167901E-3,.3114E-4,0
GRBBETA,2024-128C,2026-05-11T07:34:12.777888,15.06332592,.00454633,61.9910,345.6011,127.0344,233.4921,0,U,60237,999,10071,.1786219E-3,.2478E-4,0
OOV-CUBE (TUBSAT-30),2024-128F,2026-05-11T07:45:52.531488,15.02583342,.00490859,61.9952,354.0969,125.7149,234.8524,0,U,60240,999,10057,.12494497E-3,.1496E-4,0
ROBUSTA-3A (MEDITERRANEE),2024-128J,2026-05-11T06:48:26.216928,15.11090659,.00462928,61.9875,338.6897,120.8297,239.7365,0,U,60243,999,10084,.29230398E-3,.4816E-4,0
LASARSAT,2024-247Q,2026-05-11T07:40:22.516320,15.44090423,.00045631,44.9739,109.0045,106.4234,253.7156,0,U,62391,999,7761,.45147564E-3,.20807E-3,0
CROCUBE,2024-247T,2026-05-11T08:36:26.915904,15.45671989,.00042838,44.9712,106.6663,108.2079,251.9278,0,U,62394,999,7764,.48719216E-3,.23751E-3,0
FORESAIL-1 PRIME,2025-276DS,2026-05-11T03:51:33.914880,15.18357545,.0001627,97.4207,205.1173,194.9877,165.1309,0,U,66778,999,2478,.16033092E-3,.3226E-4,0
KNACKSAT-2,1998-067XZ,2026-05-11T05:14:20.214528,15.56780385,.00126092,51.6281,119.9512,61.9359,298.2906,0,U,67683,999,1451,.38508302E-3,.278E-3,0
